start=new Date('2022-10-27T00:00:00.000Z').valueOf();
sats=[{"MEAN_ANOMALY":"326.8427","PERIAPSIS":"537.920","APOAPSIS":"542.525","DECAY_DATE":null,"MEAN_MOTION":"15.08684013","MEAN_ELEMENT_THEORY":"SGP4","TLE_LINE2":"2 52354  53.2195 322.4193 0003328  33.2774 326.8427 15.08684013 30047","CLASSIFICATION_TYPE":"U","SITE":"AFETR","ARG_OF_PERICENTER":"33.2774","SEMIMAJOR_AXIS":"6918.357","TIME_SYSTEM":"UTC","OBJECT_TYPE":"PAYLOAD","RCS_SIZE":"LARGE","RA_OF_ASC_NODE":"322.4193","LAUNCH_DATE":"2022-04-29","REV_AT_EPOCH":"3004","MEAN_MOTION_DOT":"0.00029431","GP_ID":"216209587","EPHEMERIS_TYPE":"0","MEAN_MOTION_DDOT":"0.0000000000000","TLE_LINE1":"1 52354U 22045Z   22299.33114637  .00029431  00000-0  18674-2 0  9991","ECCENTRICITY":"0.00033280","CENTER_NAME":"EARTH","REF_FRAME":"TEME","BSTAR":"0.00186740000000","PERIOD":"95.447","INCLINATION":"53.2195","OBJECT_ID":"2022-045Z","NORAD_CAT_ID":"52354","EPOCH":"2022-10-26T07:56:51.046368","OBJECT_NAME":"STARLINK-3876","FILE":"3634846","COUNTRY_CODE":"US","ELEMENT_SET_NO":"999"},{"ARG_OF_PERICENTER":"30.0627","SEMIMAJOR_AXIS":"6917.881","CLASSIFICATION_TYPE":"U","SITE":"AFETR","LAUNCH_DATE":"2022-04-29","REV_AT_EPOCH":"3006","TIME_SYSTEM":"UTC","OBJECT_TYPE":"PAYLOAD","RCS_SIZE":"LARGE","RA_OF_ASC_NODE":"321.7649","MEAN_ANOMALY":"330.0505","PERIAPSIS":"538.055","MEAN_MOTION":"15.08839954","MEAN_ELEMENT_THEORY":"SGP4","TLE_LINE2":"2 52355  53.2164 321.7649 0002443  30.0627 330.0505 15.08839954 30063","DECAY_DATE":null,"APOAPSIS":"541.436","FILE":"3634846","COUNTRY_CODE":"US","ELEMENT_SET_NO":"999","TLE_LINE1":"1 52355U 22045AA  22299.47830359  .00001964  00000-0  14146-3 0  9995","ECCENTRICITY":"0.00024430","MEAN_MOTION_DOT":"0.00001964","EPHEMERIS_TYPE":"0","GP_ID":"216209837","MEAN_MOTION_DDOT":"0.0000000000000","NORAD_CAT_ID":"52355","OBJECT_NAME":"STARLINK-3877","EPOCH":"2022-10-26T11:28:45.430176","CENTER_NAME":"EARTH","REF_FRAME":"TEME","BSTAR":"0.00014146000000","PERIOD":"95.438","OBJECT_ID":"2022-045AA","INCLINATION":"53.2164"},{"COUNTRY_CODE":"US","FILE":"3635100","ELEMENT_SET_NO":"999","GP_ID":"216267117","EPHEMERIS_TYPE":"0","MEAN_MOTION_DDOT":"0.0000000000000","MEAN_MOTION_DOT":"0.00004412","ECCENTRICITY":"0.00025920","TLE_LINE1":"1 52356U 22045AB  22299.79574399  .00004412  00000-0  29514-3 0  9996","PERIOD":"95.438","OBJECT_ID":"2022-045AB","INCLINATION":"53.2202","BSTAR":"0.00029514000000","REF_FRAME":"TEME","CENTER_NAME":"EARTH","EPOCH":"2022-10-26T19:05:52.280736","OBJECT_NAME":"STARLINK-3801","NORAD_CAT_ID":"52356","SITE":"AFETR","CLASSIFICATION_TYPE":"U","SEMIMAJOR_AXIS":"6917.883","ARG_OF_PERICENTER":"33.6197","OBJECT_TYPE":"PAYLOAD","RCS_SIZE":"LARGE","RA_OF_ASC_NODE":"320.3271","TIME_SYSTEM":"UTC","REV_AT_EPOCH":"3011","LAUNCH_DATE":"2022-04-29","PERIAPSIS":"537.955","MEAN_ANOMALY":"326.4959","APOAPSIS":"541.541","DECAY_DATE":null,"TLE_LINE2":"2 52356  53.2202 320.3271 0002592  33.6197 326.4959 15.08839064 30119","MEAN_ELEMENT_THEORY":"SGP4","MEAN_MOTION":"15.08839064"},{"TLE_LINE1":"1 52357U 22045AC  22299.80216121  .00002167  00000-0  15433-3 0  9995","ECCENTRICITY":"0.00031030","MEAN_MOTION_DOT":"0.00002167","MEAN_MOTION_DDOT":"0.0000000000000","GP_ID":"216265372","EPHEMERIS_TYPE":"0","NORAD_CAT_ID":"52357","EPOCH":"2022-10-26T19:15:06.728544","OBJECT_NAME":"STARLINK-3821","CENTER_NAME":"EARTH","BSTAR":"0.00015433000000","REF_FRAME":"TEME","PERIOD":"95.439","OBJECT_ID":"2022-045AC","INCLINATION":"53.2176","FILE":"3635100","COUNTRY_CODE":"US","ELEMENT_SET_NO":"999","MEAN_ANOMALY":"334.8446","PERIAPSIS":"537.648","MEAN_MOTION":"15.08823920","MEAN_ELEMENT_THEORY":"SGP4","TLE_LINE2":"2 52357  53.2176 320.3115 0003103  25.2697 334.8446 15.08823920 30116","APOAPSIS":"541.941","DECAY_DATE":null,"ARG_OF_PERICENTER":"25.2697","SEMIMAJOR_AXIS":"6917.930","CLASSIFICATION_TYPE":"U","SITE":"AFETR","LAUNCH_DATE":"2022-04-29","REV_AT_EPOCH":"3011","TIME_SYSTEM":"UTC","RA_OF_ASC_NODE":"320.3115","RCS_SIZE":"LARGE","OBJECT_TYPE":"PAYLOAD"},{"FILE":"3635100","COUNTRY_CODE":"US","ELEMENT_SET_NO":"999","ECCENTRICITY":"0.00029980","TLE_LINE1":"1 52358U 22045AD  22299.78375299  .00003782  00000-0  25569-3 0  9990","MEAN_MOTION_DOT":"0.00003782","GP_ID":"216265622","MEAN_MOTION_DDOT":"0.0000000000000","EPHEMERIS_TYPE":"0","EPOCH":"2022-10-26T18:48:36.258336","OBJECT_NAME":"STARLINK-3837","NORAD_CAT_ID":"52358","BSTAR":"0.00025569000000","REF_FRAME":"TEME","PERIOD":"95.438","OBJECT_ID":"2022-045AD","INCLINATION":"53.2193","CENTER_NAME":"EARTH","ARG_OF_PERICENTER":"30.6997","SEMIMAJOR_AXIS":"6917.908","SITE":"AFETR","CLASSIFICATION_TYPE":"U","LAUNCH_DATE":"2022-04-29","REV_AT_EPOCH":"3011","RCS_SIZE":"LARGE","RA_OF_ASC_NODE":"320.3842","OBJECT_TYPE":"PAYLOAD","TIME_SYSTEM":"UTC","PERIAPSIS":"537.699","MEAN_ANOMALY":"329.4170","MEAN_ELEMENT_THEORY":"SGP4","TLE_LINE2":"2 52358  53.2193 320.3842 0002998  30.6997 329.4170 15.08831103 30113","MEAN_MOTION":"15.08831103","DECAY_DATE":null,"APOAPSIS":"541.847"},{"GP_ID":"216210338","MEAN_MOTION_DDOT":"0.0000000000000","EPHEMERIS_TYPE":"0","MEAN_MOTION_DOT":"0.00002921","ECCENTRICITY":"0.00029690","TLE_LINE1":"1 52359U 22045AE  22299.46726535  .00002921  00000-0  20156-3 0  9990","PERIOD":"95.438","INCLINATION":"53.2183","OBJECT_ID":"2022-045AE","REF_FRAME":"TEME","BSTAR":"0.00020156000000","CENTER_NAME":"EARTH","EPOCH":"2022-10-26T11:12:51.726240","OBJECT_NAME":"STARLINK-3853","NORAD_CAT_ID":"52359","COUNTRY_CODE":"US","FILE":"3634846","ELEMENT_SET_NO":"999","PERIAPSIS":"537.702","MEAN_ANOMALY":"330.8333","APOAPSIS":"541.810","DECAY_DATE":null,"TLE_LINE2":"2 52359  53.2183 321.8136 0002969  29.2825 330.8333 15.08836412 30066","MEAN_ELEMENT_THEORY":"SGP4","MEAN_MOTION":"15.08836412","SITE":"AFETR","CLASSIFICATION_TYPE":"U","SEMIMAJOR_AXIS":"6917.891","ARG_OF_PERICENTER":"29.2825","OBJECT_TYPE":"PAYLOAD","RCS_SIZE":"LARGE","RA_OF_ASC_NODE":"321.8136","TIME_SYSTEM":"UTC","REV_AT_EPOCH":"3006","LAUNCH_DATE":"2022-04-29"},{"TLE_LINE1":"1 52360U 22045AF  22299.44610176  .00001813  00000-0  13201-3 0  9995","ECCENTRICITY":"0.00026040","MEAN_MOTION_DDOT":"0.0000000000000","GP_ID":"216210064","EPHEMERIS_TYPE":"0","MEAN_MOTION_DOT":"0.00001813","NORAD_CAT_ID":"52360","OBJECT_NAME":"STARLINK-3824","EPOCH":"2022-10-26T10:42:23.192064","CENTER_NAME":"EARTH","PERIOD":"95.437","OBJECT_ID":"2022-045AF","INCLINATION":"53.2183","REF_FRAME":"TEME","BSTAR":"0.00013201000000","COUNTRY_CODE":"US","FILE":"3634846","ELEMENT_SET_NO":"999","MEAN_ANOMALY":"328.4095","PERIAPSIS":"537.934","MEAN_MOTION":"15.08843333","TLE_LINE2":"2 52360  53.2183 311.9084 0002604  31.7054 328.4095 15.08843333 30189","MEAN_ELEMENT_THEORY":"SGP4","APOAPSIS":"541.537","DECAY_DATE":null,"SEMIMAJOR_AXIS":"6917.870","ARG_OF_PERICENTER":"31.7054","CLASSIFICATION_TYPE":"U","SITE":"AFETR","REV_AT_EPOCH":"3018","LAUNCH_DATE":"2022-04-29","TIME_SYSTEM":"UTC","RCS_SIZE":"LARGE","OBJECT_TYPE":"PAYLOAD","RA_OF_ASC_NODE":"311.9084"},{"PERIAPSIS":"537.789","MEAN_ANOMALY":"328.0988","MEAN_ELEMENT_THEORY":"SGP4","TLE_LINE2":"2 52361  53.2194 320.3501 0002872  32.0178 328.0988 15.08830044 30113","MEAN_MOTION":"15.08830044","DECAY_DATE":null,"APOAPSIS":"541.763","ARG_OF_PERICENTER":"32.0178","SEMIMAJOR_AXIS":"6917.911","SITE":"AFETR","CLASSIFICATION_TYPE":"U","LAUNCH_DATE":"2022-04-29","REV_AT_EPOCH":"3011","OBJECT_TYPE":"PAYLOAD","RCS_SIZE":"LARGE","RA_OF_ASC_NODE":"320.3501","TIME_SYSTEM":"UTC","ECCENTRICITY":"0.00028720","TLE_LINE1":"1 52361U 22045AG  22299.79111477  .00002441  00000-0  17145-3 0  9993","MEAN_MOTION_DOT":"0.00002441","EPHEMERIS_TYPE":"0","GP_ID":"216265873","MEAN_MOTION_DDOT":"0.0000000000000","EPOCH":"2022-10-26T18:59:12.316128","OBJECT_NAME":"STARLINK-3728","NORAD_CAT_ID":"52361","BSTAR":"0.00017145000000","REF_FRAME":"TEME","OBJECT_ID":"2022-045AG","PERIOD":"95.438","INCLINATION":"53.2194","CENTER_NAME":"EARTH","FILE":"3635100","COUNTRY_CODE":"US","ELEMENT_SET_NO":"999"},{"FILE":"3634846","COUNTRY_CODE":"US","ELEMENT_SET_NO":"999","MEAN_MOTION_DOT":"0.00002706","GP_ID":"216209588","MEAN_MOTION_DDOT":"0.0000000000000","EPHEMERIS_TYPE":"0","TLE_LINE1":"1 52362U 22045AH  22299.30996023  .00002706  00000-0  18821-3 0  9995","ECCENTRICITY":"0.00028480","CENTER_NAME":"EARTH","REF_FRAME":"TEME","BSTAR":"0.00018821000000","INCLINATION":"53.2171","PERIOD":"95.439","OBJECT_ID":"2022-045AH","NORAD_CAT_ID":"52362","EPOCH":"2022-10-26T07:26:20.563872","OBJECT_NAME":"STARLINK-3848","CLASSIFICATION_TYPE":"U","SITE":"AFETR","ARG_OF_PERICENTER":"27.6799","SEMIMAJOR_AXIS":"6917.955","TIME_SYSTEM":"UTC","RCS_SIZE":"LARGE","RA_OF_ASC_NODE":"312.5144","OBJECT_TYPE":"PAYLOAD","LAUNCH_DATE":"2022-04-29","REV_AT_EPOCH":"3017","MEAN_ANOMALY":"332.4344","PERIAPSIS":"537.850","DECAY_DATE":null,"APOAPSIS":"541.790","MEAN_MOTION":"15.08815631","MEAN_ELEMENT_THEORY":"SGP4","TLE_LINE2":"2 52362  53.2171 312.5144 0002848  27.6799 332.4344 15.08815631 30173"},{"FILE":"3635100","COUNTRY_CODE":"US","ELEMENT_SET_NO":"999","TLE_LINE1":"1 52363U 22045AJ  22299.78742525  .00003286  00000-0  22446-3 0  9996","ECCENTRICITY":"0.00027830","MEAN_MOTION_DOT":"0.00003286","EPHEMERIS_TYPE":"0","GP_ID":"216266875","MEAN_MOTION_DDOT":"0.0000000000000","NORAD_CAT_ID":"52363","OBJECT_NAME":"STARLINK-3830","EPOCH":"2022-10-26T18:53:53.541600","CENTER_NAME":"EARTH","BSTAR":"0.00022446000000","REF_FRAME":"TEME","PERIOD":"95.438","OBJECT_ID":"2022-045AJ","INCLINATION":"53.2201","ARG_OF_PERICENTER":"29.8871","SEMIMAJOR_AXIS":"6917.888","CLASSIFICATION_TYPE":"U","SITE":"AFETR","LAUNCH_DATE":"2022-04-29","REV_AT_EPOCH":"3011","TIME_SYSTEM":"UTC","RCS_SIZE":"LARGE","OBJECT_TYPE":"PAYLOAD","RA_OF_ASC_NODE":"320.3634","MEAN_ANOMALY":"330.2280","PERIAPSIS":"537.828","MEAN_MOTION":"15.08837559","MEAN_ELEMENT_THEORY":"SGP4","TLE_LINE2":"2 52363  53.2201 320.3634 0002783  29.8871 330.2280 15.08837559 30114","DECAY_DATE":null,"APOAPSIS":"541.678"}];
